[{"OBJECT_NAME":"SL-8 R/B","OBJECT_ID":"1991-006B","EPOCH":"2026-04-01T21:22:19.377120","MEAN_MOTION":13.77498051,"ECCENTRICITY":0.0021585,"INCLINATION":82.9439,"RA_OF_ASC_NODE":152.7965,"ARG_OF_PERICENTER":333.54,"MEAN_ANOMALY":198.9854,"EPHEMERIS_TYPE":0,"CLASSIFICATION_TYPE":"U","NORAD_CAT_ID":21088,"ELEMENT_SET_NO":999,"REV_AT_EPOCH":76726,"BSTAR":0.00011521,"MEAN_MOTION_DOT":1.3e-6,"MEAN_MOTION_DDOT":0},{"OBJECT_NAME":"OKEAN-3","OBJECT_ID":"1991-039A","EPOCH":"2026-04-01T21:14:12.505344","MEAN_MOTION":15.04940371,"ECCENTRICITY":0.0012574,"INCLINATION":82.5153,"RA_OF_ASC_NODE":314.3682,"ARG_OF_PERICENTER":251.1999,"MEAN_ANOMALY":108.7864,"EPHEMERIS_TYPE":0,"CLASSIFICATION_TYPE":"U","NORAD_CAT_ID":21397,"ELEMENT_SET_NO":999,"REV_AT_EPOCH":86852,"BSTAR":0.00023108,"MEAN_MOTION_DOT":3.305e-5,"MEAN_MOTION_DDOT":0},{"OBJECT_NAME":"COSMOS 2151","OBJECT_ID":"1991-042A","EPOCH":"2026-04-01T21:29:29.660352","MEAN_MOTION":15.00207727,"ECCENTRICITY":0.0011928,"INCLINATION":82.4951,"RA_OF_ASC_NODE":61.2842,"ARG_OF_PERICENTER":349.9541,"MEAN_ANOMALY":10.1443,"EPHEMERIS_TYPE":0,"CLASSIFICATION_TYPE":"U","NORAD_CAT_ID":21422,"ELEMENT_SET_NO":999,"REV_AT_EPOCH":86667,"BSTAR":0.00017841,"MEAN_MOTION_DOT":2.259e-5,"MEAN_MOTION_DDOT":0},{"OBJECT_NAME":"SL-14 R/B","OBJECT_ID":"1991-042B","EPOCH":"2026-04-01T15:34:18.817824","MEAN_MOTION":14.81853116,"ECCENTRICITY":0.0017542,"INCLINATION":82.4957,"RA_OF_ASC_NODE":198.6582,"ARG_OF_PERICENTER":161.1287,"MEAN_ANOMALY":199.0581,"EPHEMERIS_TYPE":0,"CLASSIFICATION_TYPE":"U","NORAD_CAT_ID":21423,"ELEMENT_SET_NO":999,"REV_AT_EPOCH":85647,"BSTAR":6.8663e-5,"MEAN_MOTION_DOT":5.67e-6,"MEAN_MOTION_DDOT":0},{"OBJECT_NAME":"ERS-1","OBJECT_ID":"1991-050A","EPOCH":"2026-04-01T06:55:07.943232","MEAN_MOTION":14.39466444,"ECCENTRICITY":0.0032828,"INCLINATION":98.7862,"RA_OF_ASC_NODE":110.0895,"ARG_OF_PERICENTER":133.9544,"MEAN_ANOMALY":226.4359,"EPHEMERIS_TYPE":0,"CLASSIFICATION_TYPE":"U","NORAD_CAT_ID":21574,"ELEMENT_SET_NO":999,"REV_AT_EPOCH":81898,"BSTAR":0.00012388,"MEAN_MOTION_DOT":3.42e-6,"MEAN_MOTION_DDOT":0},{"OBJECT_NAME":"ARIANE 40 R/B","OBJECT_ID":"1991-050F","EPOCH":"2026-04-01T20:09:56.495808","MEAN_MOTION":14.42910501,"ECCENTRICITY":0.0003315,"INCLINATION":98.1963,"RA_OF_ASC_NODE":143.2025,"ARG_OF_PERICENTER":27.9888,"MEAN_ANOMALY":332.148,"EPHEMERIS_TYPE":0,"CLASSIFICATION_TYPE":"U","NORAD_CAT_ID":21610,"ELEMENT_SET_NO":999,"REV_AT_EPOCH":82233,"BSTAR":0.00011745,"MEAN_MOTION_DOT":3.51e-6,"MEAN_MOTION_DDOT":0},{"OBJECT_NAME":"INTERCOSMOS 25","OBJECT_ID":"1991-086A","EPOCH":"2026-04-01T20:28:23.397312","MEAN_MOTION":12.12079693,"ECCENTRICITY":0.1486411,"INCLINATION":82.6001,"RA_OF_ASC_NODE":296.0037,"ARG_OF_PERICENTER":67.0264,"MEAN_ANOMALY":308.0503,"EPHEMERIS_TYPE":0,"CLASSIFICATION_TYPE":"U","NORAD_CAT_ID":21819,"ELEMENT_SET_NO":999,"REV_AT_EPOCH":49949,"BSTAR":0.00038258,"MEAN_MOTION_DOT":1.983e-5,"MEAN_MOTION_DDOT":0},{"OBJECT_NAME":"SL-8 R/B","OBJECT_ID":"1992-008B","EPOCH":"2026-04-01T16:34:06.273696","MEAN_MOTION":13.75969691,"ECCENTRICITY":0.0035871,"INCLINATION":82.9239,"RA_OF_ASC_NODE":250.6638,"ARG_OF_PERICENTER":71.3293,"MEAN_ANOMALY":300.1076,"EPHEMERIS_TYPE":0,"CLASSIFICATION_TYPE":"U","NORAD_CAT_ID":21876,"ELEMENT_SET_NO":999,"REV_AT_EPOCH":71258,"BSTAR":-5.8305e-6,"MEAN_MOTION_DOT":1.0e-7,"MEAN_MOTION_DDOT":0},{"OBJECT_NAME":"SL-8 R/B","OBJECT_ID":"1992-020B","EPOCH":"2026-04-01T05:49:47.246016","MEAN_MOTION":13.75550633,"ECCENTRICITY":0.0027891,"INCLINATION":82.9297,"RA_OF_ASC_NODE":137.0156,"ARG_OF_PERICENTER":232.909,"MEAN_ANOMALY":195.8132,"EPHEMERIS_TYPE":0,"CLASSIFICATION_TYPE":"U","NORAD_CAT_ID":21938,"ELEMENT_SET_NO":999,"REV_AT_EPOCH":70423,"BSTAR":2.941e-5,"MEAN_MOTION_DOT":4.3e-7,"MEAN_MOTION_DDOT":0},{"OBJECT_NAME":"USA 81","OBJECT_ID":"1992-023A","EPOCH":"2026-04-01T18:45:34.640352","MEAN_MOTION":14.32375529,"ECCENTRICITY":0.000162,"INCLINATION":85.0041,"RA_OF_ASC_NODE":118.1139,"ARG_OF_PERICENTER":68.9041,"MEAN_ANOMALY":291.2325,"EPHEMERIS_TYPE":0,"CLASSIFICATION_TYPE":"U","NORAD_CAT_ID":21949,"ELEMENT_SET_NO":999,"REV_AT_EPOCH":9809,"BSTAR":6.9602e-5,"MEAN_MOTION_DOT":2.08e-6,"MEAN_MOTION_DDOT":0},{"OBJECT_NAME":"COSMOS 2219","OBJECT_ID":"1992-076A","EPOCH":"2026-04-01T03:46:19.796448","MEAN_MOTION":14.14089614,"ECCENTRICITY":0.00177736,"INCLINATION":71.0614,"RA_OF_ASC_NODE":331.1053,"ARG_OF_PERICENTER":173.505,"MEAN_ANOMALY":186.6307,"EPHEMERIS_TYPE":0,"CLASSIFICATION_TYPE":"U","NORAD_CAT_ID":22219,"ELEMENT_SET_NO":999,"REV_AT_EPOCH":72155,"BSTAR":-8.9199195e-5,"MEAN_MOTION_DOT":-2.17e-6,"MEAN_MOTION_DDOT":0},{"OBJECT_NAME":"SL-16 R/B","OBJECT_ID":"1992-076B","EPOCH":"2026-04-01T20:59:51.106848","MEAN_MOTION":14.16863028,"ECCENTRICITY":0.0010823,"INCLINATION":70.9989,"RA_OF_ASC_NODE":139.538,"ARG_OF_PERICENTER":53.4222,"MEAN_ANOMALY":118.0943,"EPHEMERIS_TYPE":0,"CLASSIFICATION_TYPE":"U","NORAD_CAT_ID":22220,"ELEMENT_SET_NO":999,"REV_AT_EPOCH":72511,"BSTAR":-7.0562e-5,"MEAN_MOTION_DOT":-1.89e-6,"MEAN_MOTION_DDOT":0},{"OBJECT_NAME":"COSMOS 2221","OBJECT_ID":"1992-080A","EPOCH":"2026-04-01T18:37:57.656064","MEAN_MOTION":14.96300649,"ECCENTRICITY":0.0015636,"INCLINATION":82.5008,"RA_OF_ASC_NODE":256.9592,"ARG_OF_PERICENTER":113.2827,"MEAN_ANOMALY":247.0043,"EPHEMERIS_TYPE":0,"CLASSIFICATION_TYPE":"U","NORAD_CAT_ID":22236,"ELEMENT_SET_NO":999,"REV_AT_EPOCH":78424,"BSTAR":0.00021506,"MEAN_MOTION_DOT":2.461e-5,"MEAN_MOTION_DDOT":0},{"OBJECT_NAME":"SL-16 R/B","OBJECT_ID":"1992-093B","EPOCH":"2026-04-01T01:42:34.556256","MEAN_MOTION":14.15455812,"ECCENTRICITY":0.00065835,"INCLINATION":71.0226,"RA_OF_ASC_NODE":317.2836,"ARG_OF_PERICENTER":272.1865,"MEAN_ANOMALY":87.8504,"EPHEMERIS_TYPE":0,"CLASSIFICATION_TYPE":"U","NORAD_CAT_ID":22285,"ELEMENT_SET_NO":999,"REV_AT_EPOCH":71632,"BSTAR":5.6890985e-5,"MEAN_MOTION_DOT":6.4e-7,"MEAN_MOTION_DDOT":0},{"OBJECT_NAME":"COSMOS 2228","OBJECT_ID":"1992-094A","EPOCH":"2026-04-01T20:15:30.044736","MEAN_MOTION":14.97314489,"ECCENTRICITY":0.00171,"INCLINATION":82.5194,"RA_OF_ASC_NODE":215.1409,"ARG_OF_PERICENTER":220.4303,"MEAN_ANOMALY":139.565,"EPHEMERIS_TYPE":0,"CLASSIFICATION_TYPE":"U","NORAD_CAT_ID":22286,"ELEMENT_SET_NO":999,"REV_AT_EPOCH":77952,"BSTAR":0.00023554,"MEAN_MOTION_DOT":2.765e-5,"MEAN_MOTION_DDOT":0},{"OBJECT_NAME":"SL-16 R/B","OBJECT_ID":"1993-016B","EPOCH":"2026-04-01T09:31:07.118688","MEAN_MOTION":14.15306538,"ECCENTRICITY":0.001235,"INCLINATION":71.0075,"RA_OF_ASC_NODE":167.4935,"ARG_OF_PERICENTER":284.9144,"MEAN_ANOMALY":75.0611,"EPHEMERIS_TYPE":0,"CLASSIFICATION_TYPE":"U","NORAD_CAT_ID":22566,"ELEMENT_SET_NO":999,"REV_AT_EPOCH":70538,"BSTAR":0.00012953,"MEAN_MOTION_DOT":2.05e-6,"MEAN_MOTION_DDOT":0},{"OBJECT_NAME":"COSMOS 2242","OBJECT_ID":"1993-024A","EPOCH":"2026-04-01T16:51:47.068704","MEAN_MOTION":14.96651785,"ECCENTRICITY":0.0015309,"INCLINATION":82.5169,"RA_OF_ASC_NODE":244.698,"ARG_OF_PERICENTER":224.4268,"MEAN_ANOMALY":135.5727,"EPHEMERIS_TYPE":0,"CLASSIFICATION_TYPE":"U","NORAD_CAT_ID":22626,"ELEMENT_SET_NO":999,"REV_AT_EPOCH":78383,"BSTAR":0.00025656,"MEAN_MOTION_DOT":2.957e-5,"MEAN_MOTION_DDOT":0}]
